ONEWEB-0520             
1 54138U 22138AB  26032.87268135  .00000005  00000+0 -20943-4 0  9997
2 54138  87.9256 331.8946 0001490  77.3406 282.7893 13.19726777158974
ONEWEB-0521             
1 54139U 22138AC  26032.90584997 -.00000018  00000+0 -76915-4 0  9994
2 54139  87.9257 331.8717 0001984  73.7163 286.4188 13.19727948158924
ONEWEB-0522             
1 54140U 22138AD  26032.88530372 -.00000402  00000+0 -10354-2 0  9991
2 54140  87.9256 331.8772 0001640  75.9141 284.2174 13.19725242158965
ONEWEB-0523             
1 54141U 22138AE  26032.80459488 -.00000468  00000+0 -11839-2 0  9993
2 54141  87.9223 301.4557 0002359  83.0073 277.1329 13.20771037161430
ONEWEB-0524             
1 54142U 22138AF  26032.79355308  .00000012  00000+0 -30787-5 0  9998
2 54142  87.9221 301.4593 0002025 106.1387 253.9969 13.20773485161435
ONEWEB-0525             
1 54143U 22138AG  26032.90426952  .00000042  00000+0  71373-4 0  9993
2 54143  87.9250 331.8904 0001506  77.1885 282.9416 13.19727600158985
ONEWEB-0526             
1 54144U 22138AH  26032.86162369 -.00000034  00000+0 -11811-3 0  9991
2 54144  87.9258 331.8909 0001698  79.9205 280.2120 13.19726782158957
ONEWEB-0529             
1 54145U 22138AJ  26032.86478511  .00000012  00000+0 -21170-5 0  9997
2 54145  87.9247 331.9125 0001541  77.2819 282.8486 13.19727135158974
ONEWEB-0531             
1 54146U 22138AK  26032.77934203 -.00000226  00000+0 -58863-3 0  9998
2 54146  87.9221 301.4578 0002426  93.1515 266.9896 13.20771500161434
ONEWEB-0535             
1 54147U 22138AL  26032.89793875 -.00000342  00000+0 -88687-3 0  9996
2 54147  87.9257 331.8781 0002185  79.2886 280.8493 13.19725897158996
ONEWEB-0536             
1 54148U 22138AM  26032.76671706  .00000079  00000+0  16124-3 0  9993
2 54148  87.9213 301.4985 0002456  96.7854 263.3559 13.20769943161421
ONEWEB-0527             
1 54642U 22166A   26032.67415235  .00000106  00000+0  22416-3 0  9998
2 54642  87.9198 271.0321 0001524  84.0219 276.1089 13.21826206153639
ONEWEB-0528             
1 54643U 22166B   26032.68073057  .00000077  00000+0  15502-3 0  9997
2 54643  87.9198 271.0348 0001503  83.0186 277.1119 13.21824199153643
ONEWEB-0539             
1 54644U 22166C   26032.71859170  .00000043  00000+0  71961-4 0  9995
2 54644  87.9198 270.9924 0001478  73.5697 286.5599 13.21827647153641
ONEWEB-0540             
1 54645U 22166D   26032.64961098  .00000037  00000+0  58543-4 0  9995
2 54645  87.9194 271.0434 0001622  77.4757 282.6559 13.21825054153628
ONEWEB-0542             
1 54646U 22166E   26032.72846127  .00000044  00000+0  74449-4 0  9991
2 54646  87.9198 270.9857 0001677  69.0750 291.0564 13.21827820153645
