[{"OBJECT_NAME":"ONEWEB-0520","OBJECT_ID":"2022-138AB","EPOCH":"2026-02-01T20:56:39.668640","MEAN_MOTION":13.19726777,"ECCENTRICITY":0.00014906,"INCLINATION":87.9256,"RA_OF_ASC_NODE":331.8946,"ARG_OF_PERICENTER":77.3406,"MEAN_ANOMALY":282.7893,"EPHEMERIS_TYPE":0,"CLASSIFICATION_TYPE":"U","NORAD_CAT_ID":54138,"ELEMENT_SET_NO":999,"REV_AT_EPOCH":15897,"BSTAR":-2.0942552e-5,"MEAN_MOTION_DOT":5.0e-8,"MEAN_MOTION_DDOT":0},{"OBJECT_NAME":"ONEWEB-0521","OBJECT_ID":"2022-138AC","EPOCH":"2026-02-01T21:44:25.437408","MEAN_MOTION":13.19727948,"ECCENTRICITY":0.00019845,"INCLINATION":87.9257,"RA_OF_ASC_NODE":331.8717,"ARG_OF_PERICENTER":73.7163,"MEAN_ANOMALY":286.4188,"EPHEMERIS_TYPE":0,"CLASSIFICATION_TYPE":"U","NORAD_CAT_ID":54139,"ELEMENT_SET_NO":999,"REV_AT_EPOCH":15892,"BSTAR":-7.6914911e-5,"MEAN_MOTION_DOT":-1.8e-7,"MEAN_MOTION_DDOT":0},{"OBJECT_NAME":"ONEWEB-0522","OBJECT_ID":"2022-138AD","EPOCH":"2026-02-01T21:14:50.241408","MEAN_MOTION":13.19725242,"ECCENTRICITY":0.00016404,"INCLINATION":87.9256,"RA_OF_ASC_NODE":331.8772,"ARG_OF_PERICENTER":75.9141,"MEAN_ANOMALY":284.2174,"EPHEMERIS_TYPE":0,"CLASSIFICATION_TYPE":"U","NORAD_CAT_ID":54140,"ELEMENT_SET_NO":999,"REV_AT_EPOCH":15896,"BSTAR":-0.001035354,"MEAN_MOTION_DOT":-4.02e-6,"MEAN_MOTION_DDOT":0},{"OBJECT_NAME":"ONEWEB-0523","OBJECT_ID":"2022-138AE","EPOCH":"2026-02-01T19:18:36.997632","MEAN_MOTION":13.20771037,"ECCENTRICITY":0.00023593,"INCLINATION":87.9223,"RA_OF_ASC_NODE":301.4557,"ARG_OF_PERICENTER":83.0073,"MEAN_ANOMALY":277.1329,"EPHEMERIS_TYPE":0,"CLASSIFICATION_TYPE":"U","NORAD_CAT_ID":54141,"ELEMENT_SET_NO":999,"REV_AT_EPOCH":16143,"BSTAR":-0.0011839468,"MEAN_MOTION_DOT":-4.68e-6,"MEAN_MOTION_DDOT":0},{"OBJECT_NAME":"ONEWEB-0524","OBJECT_ID":"2022-138AF","EPOCH":"2026-02-01T19:02:42.986112","MEAN_MOTION":13.20773485,"ECCENTRICITY":0.00020252,"INCLINATION":87.9221,"RA_OF_ASC_NODE":301.4593,"ARG_OF_PERICENTER":106.1387,"MEAN_ANOMALY":253.9969,"EPHEMERIS_TYPE":0,"CLASSIFICATION_TYPE":"U","NORAD_CAT_ID":54142,"ELEMENT_SET_NO":999,"REV_AT_EPOCH":16143,"BSTAR":-3.078653e-6,"MEAN_MOTION_DOT":1.2e-7,"MEAN_MOTION_DDOT":0},{"OBJECT_NAME":"ONEWEB-0525","OBJECT_ID":"2022-138AG","EPOCH":"2026-02-01T21:42:08.886528","MEAN_MOTION":13.197276,"ECCENTRICITY":0.00015067,"INCLINATION":87.925,"RA_OF_ASC_NODE":331.8904,"ARG_OF_PERICENTER":77.1885,"MEAN_ANOMALY":282.9416,"EPHEMERIS_TYPE":0,"CLASSIFICATION_TYPE":"U","NORAD_CAT_ID":54143,"ELEMENT_SET_NO":999,"REV_AT_EPOCH":15898,"BSTAR":7.1373119e-5,"MEAN_MOTION_DOT":4.2e-7,"MEAN_MOTION_DDOT":0},{"OBJECT_NAME":"ONEWEB-0526","OBJECT_ID":"2022-138AH","EPOCH":"2026-02-01T20:40:44.286816","MEAN_MOTION":13.19726782,"ECCENTRICITY":0.00016985,"INCLINATION":87.9258,"RA_OF_ASC_NODE":331.8909,"ARG_OF_PERICENTER":79.9205,"MEAN_ANOMALY":280.212,"EPHEMERIS_TYPE":0,"CLASSIFICATION_TYPE":"U","NORAD_CAT_ID":54144,"ELEMENT_SET_NO":999,"REV_AT_EPOCH":15895,"BSTAR":-0.00011810814,"MEAN_MOTION_DOT":-3.4e-7,"MEAN_MOTION_DDOT":0},{"OBJECT_NAME":"ONEWEB-0529","OBJECT_ID":"2022-138AJ","EPOCH":"2026-02-01T20:45:17.433504","MEAN_MOTION":13.19727135,"ECCENTRICITY":0.00015414,"INCLINATION":87.9247,"RA_OF_ASC_NODE":331.9125,"ARG_OF_PERICENTER":77.2819,"MEAN_ANOMALY":282.8486,"EPHEMERIS_TYPE":0,"CLASSIFICATION_TYPE":"U","NORAD_CAT_ID":54145,"ELEMENT_SET_NO":999,"REV_AT_EPOCH":15897,"BSTAR":-2.116986e-6,"MEAN_MOTION_DOT":1.2e-7,"MEAN_MOTION_DDOT":0},{"OBJECT_NAME":"ONEWEB-0531","OBJECT_ID":"2022-138AK","EPOCH":"2026-02-01T18:42:15.151392","MEAN_MOTION":13.207715,"ECCENTRICITY":0.00024265,"INCLINATION":87.9221,"RA_OF_ASC_NODE":301.4578,"ARG_OF_PERICENTER":93.1515,"MEAN_ANOMALY":266.9896,"EPHEMERIS_TYPE":0,"CLASSIFICATION_TYPE":"U","NORAD_CAT_ID":54146,"ELEMENT_SET_NO":999,"REV_AT_EPOCH":16143,"BSTAR":-0.00058862606,"MEAN_MOTION_DOT":-2.26e-6,"MEAN_MOTION_DDOT":0},{"OBJECT_NAME":"ONEWEB-0535","OBJECT_ID":"2022-138AL","EPOCH":"2026-02-01T21:33:01.908000","MEAN_MOTION":13.19725897,"ECCENTRICITY":0.00021857,"INCLINATION":87.9257,"RA_OF_ASC_NODE":331.8781,"ARG_OF_PERICENTER":79.2886,"MEAN_ANOMALY":280.8493,"EPHEMERIS_TYPE":0,"CLASSIFICATION_TYPE":"U","NORAD_CAT_ID":54147,"ELEMENT_SET_NO":999,"REV_AT_EPOCH":15899,"BSTAR":-0.00088687169,"MEAN_MOTION_DOT":-3.42e-6,"MEAN_MOTION_DDOT":0},{"OBJECT_NAME":"ONEWEB-0536","OBJECT_ID":"2022-138AM","EPOCH":"2026-02-01T18:24:04.353984","MEAN_MOTION":13.20769943,"ECCENTRICITY":0.00024565,"INCLINATION":87.9213,"RA_OF_ASC_NODE":301.4985,"ARG_OF_PERICENTER":96.7854,"MEAN_ANOMALY":263.3559,"EPHEMERIS_TYPE":0,"CLASSIFICATION_TYPE":"U","NORAD_CAT_ID":54148,"ELEMENT_SET_NO":999,"REV_AT_EPOCH":16142,"BSTAR":0.00016124002,"MEAN_MOTION_DOT":7.9e-7,"MEAN_MOTION_DDOT":0},{"OBJECT_NAME":"ONEWEB-0527","OBJECT_ID":"2022-166A","EPOCH":"2026-02-01T16:10:46.763040","MEAN_MOTION":13.21826206,"ECCENTRICITY":0.00015242,"INCLINATION":87.9198,"RA_OF_ASC_NODE":271.0321,"ARG_OF_PERICENTER":84.0219,"MEAN_ANOMALY":276.1089,"EPHEMERIS_TYPE":0,"CLASSIFICATION_TYPE":"U","NORAD_CAT_ID":54642,"ELEMENT_SET_NO":999,"REV_AT_EPOCH":15363,"BSTAR":0.00022416058,"MEAN_MOTION_DOT":1.06e-6,"MEAN_MOTION_DDOT":0},{"OBJECT_NAME":"ONEWEB-0528","OBJECT_ID":"2022-166B","EPOCH":"2026-02-01T16:20:15.121248","MEAN_MOTION":13.21824199,"ECCENTRICITY":0.00015035,"INCLINATION":87.9198,"RA_OF_ASC_NODE":271.0348,"ARG_OF_PERICENTER":83.0186,"MEAN_ANOMALY":277.1119,"EPHEMERIS_TYPE":0,"CLASSIFICATION_TYPE":"U","NORAD_CAT_ID":54643,"ELEMENT_SET_NO":999,"REV_AT_EPOCH":15364,"BSTAR":0.00015502105,"MEAN_MOTION_DOT":7.7e-7,"MEAN_MOTION_DDOT":0},{"OBJECT_NAME":"ONEWEB-0539","OBJECT_ID":"2022-166C","EPOCH":"2026-02-01T17:14:46.322880","MEAN_MOTION":13.21827647,"ECCENTRICITY":0.00014782,"INCLINATION":87.9198,"RA_OF_ASC_NODE":270.9924,"ARG_OF_PERICENTER":73.5697,"MEAN_ANOMALY":286.5599,"EPHEMERIS_TYPE":0,"CLASSIFICATION_TYPE":"U","NORAD_CAT_ID":54644,"ELEMENT_SET_NO":999,"REV_AT_EPOCH":15364,"BSTAR":7.1960743e-5,"MEAN_MOTION_DOT":4.3e-7,"MEAN_MOTION_DDOT":0},{"OBJECT_NAME":"ONEWEB-0540","OBJECT_ID":"2022-166D","EPOCH":"2026-02-01T15:35:26.388672","MEAN_MOTION":13.21825054,"ECCENTRICITY":0.00016221,"INCLINATION":87.9194,"RA_OF_ASC_NODE":271.0434,"ARG_OF_PERICENTER":77.4757,"MEAN_ANOMALY":282.6559,"EPHEMERIS_TYPE":0,"CLASSIFICATION_TYPE":"U","NORAD_CAT_ID":54645,"ELEMENT_SET_NO":999,"REV_AT_EPOCH":15362,"BSTAR":5.8542962e-5,"MEAN_MOTION_DOT":3.7e-7,"MEAN_MOTION_DDOT":0},{"OBJECT_NAME":"ONEWEB-0542","OBJECT_ID":"2022-166E","EPOCH":"2026-02-01T17:28:59.053728","MEAN_MOTION":13.2182782,"ECCENTRICITY":0.0001677,"INCLINATION":87.9198,"RA_OF_ASC_NODE":270.9857,"ARG_OF_PERICENTER":69.075,"MEAN_ANOMALY":291.0564,"EPHEMERIS_TYPE":0,"CLASSIFICATION_TYPE":"U","NORAD_CAT_ID":54646,"ELEMENT_SET_NO":999,"REV_AT_EPOCH":15364,"BSTAR":7.4448793e-5,"MEAN_MOTION_DOT":4.4e-7,"MEAN_MOTION_DDOT":0}]
